COMMENT,ORIGINATOR,NORAD_CAT_ID,OBJECT_NAME,OBJECT_TYPE,CLASSIFICATION_TYPE,INTLDES,EPOCH,EPOCH_MICROSECONDS,MEAN_MOTION,ECCENTRICITY,INCLINATION,RA_OF_ASC_NODE,ARG_OF_PERICENTER,MEAN_ANOMALY,EPHEMERIS_TYPE,ELEMENT_SET_NO,REV_AT_EPOCH,BSTAR,MEAN_MOTION_DOT,MEAN_MOTION_DDOT,FILE,TLE_LINE0,TLE_LINE1,TLE_LINE2,OBJECT_ID,OBJECT_NUMBER,SEMIMAJOR_AXIS,PERIOD,APOGEE,PERIGEE,DECAYED,date
GENERATED VIA SPACETRACK.ORG API,18 SPCS,48883,SPACEBEE-100,PAYLOAD,U,21059E,2023/1/21 14:14,335680,15.21486796,0.000843,97.5762,156.1314,61.8929,298.3158,0,999,8702,0.0015946,0.00035972,0,3757203,0 SPACEBEE-100,1 48883U 21059E   23021.59325620  .00035972  00000-0  15946-2 0  9991,2 48883  97.5762 156.1314 0008430  61.8929 298.3158 15.21486796 87022,2021-059E,48883,6879.492,94.644,507.157,495.558,0,2023/2/16
GENERATED VIA SPACETRACK.ORG API,18 SPCS,48883,SPACEBEE-100,PAYLOAD,U,21059E,2023/1/22 15:29,794432,15.21550434,0.0008447,97.5765,157.1907,58.3245,301.8814,0,999,8718,0.0013306,0.00030037,0,3758141,0 SPACEBEE-100,1 48883U 21059E   23022.64550688  .00030037  00000-0  13306-2 0  9997,2 48883  97.5765 157.1907 0008447  58.3245 301.8814 15.21550434 87181,2021-059E,48883,6879.3,94.64,506.976,495.354,0,2023/2/17
GENERATED VIA SPACETRACK.ORG API,18 SPCS,48883,SPACEBEE-100,PAYLOAD,U,21059E,2023/1/23 19:54,820192,15.21623883,0.000854,97.5769,158.3825,54.8391,305.3643,0,999,8736,0.0012233,0.0002766,0,3759095,0 SPACEBEE-100,1 48883U 21059E   23023.82923403  .00027660  00000-0  12233-2 0  9993,2 48883  97.5769 158.3825 0008540  54.8391 305.3643 15.21623883 87362,2021-059E,48883,6879.079,94.636,506.819,495.069,0,2023/2/18
GENERATED VIA SPACETRACK.ORG API,18 SPCS,48883,SPACEBEE-100,PAYLOAD,U,21059E,2023/1/24 22:43,613984,15.21687568,0.0008489,97.5767,159.508,50.7706,309.4282,0,999,8753,0.0012026,0.0002724,0,3760535,0 SPACEBEE-100,1 48883U 21059E   23024.94714831  .00027240  00000-0  12026-2 0  9994,2 48883  97.5767 159.5080 0008489  50.7706 309.4282 15.21687568 87536,2021-059E,48883,6878.887,94.632,506.592,494.913,0,2023/2/19
GENERATED VIA SPACETRACK.ORG API,18 SPCS,48883,SPACEBEE-100,PAYLOAD,U,21059E,2023/1/25 14:30,202848,15.21720058,0.0008432,97.5765,160.1699,48.1152,312.0801,0,999,8763,0.0011473,0.00026004,0,3761297,0 SPACEBEE-100,1 48883U 21059E   23025.60472457  .00026004  00000-0  11473-2 0  9995,2 48883  97.5765 160.1699 0008432  48.1152 312.0801 15.21720058 87632,2021-059E,48883,6878.789,94.63,506.454,494.854,0,2023/2/20
GENERATED VIA SPACETRACK.ORG API,18 SPCS,48883,SPACEBEE-100,PAYLOAD,U,21059E,2023/1/26 14:11,765440,15.21773011,0.0008435,97.5763,161.1634,44.0504,316.1402,0,999,8778,0.0012346,0.00028039,0,3761951,0 SPACEBEE-100,1 48883U 21059E   23026.59106210  .00028039  00000-0  12346-2 0  9995,2 48883  97.5763 161.1634 0008435  44.0504 316.1402 15.21773011 87784,2021-059E,48883,6878.63,94.626,506.297,494.692,0,2023/2/21
GENERATED VIA SPACETRACK.ORG API,18 SPCS,48883,SPACEBEE-100,PAYLOAD,U,21059E,2023/1/26 14:11,765440,15.21773011,0.0008435,97.5763,161.1634,44.0504,316.1402,0,999,8778,0.0012346,0.00028039,0,3761959,0 SPACEBEE-100,1 48883U 21059E   23026.59106210  .00028039  00000-0  12346-2 0  9995,2 48883  97.5763 161.1634 0008435  44.0504 316.1402 15.21773011 87784,2021-059E,48883,6878.63,94.626,506.297,494.692,0,2023/2/22
GENERATED VIA SPACETRACK.ORG API,18 SPCS,48883,SPACEBEE-100,PAYLOAD,U,21059E,2023/1/27 7:32,291872,15.21806854,0.0008453,97.5763,161.892,41.6233,318.5644,0,999,8789,0.00098978,0.0002247,0,3762956,0 SPACEBEE-100,1 48883U 21059E   23027.31435523  .00022470  00000-0  98978-3 0  9997,2 48883  97.5763 161.8920 0008453  41.6233 318.5644 15.21806854 87899,2021-059E,48883,6878.528,94.624,506.207,494.578,0,2023/2/23
GENERATED VIA SPACETRACK.ORG API,18 SPCS,48883,SPACEBEE-100,PAYLOAD,U,21059E,2023/1/27 7:32,291872,15.21806854,0.0008453,97.5763,161.892,41.6233,318.5644,0,999,8789,0.00098978,0.0002247,0,3763147,0 SPACEBEE-100,1 48883U 21059E   23027.31435523  .00022470  00000-0  98978-3 0  9997,2 48883  97.5763 161.8920 0008453  41.6233 318.5644 15.21806854 87899,2021-059E,48883,6878.528,94.624,506.207,494.578,0,2023/2/24
GENERATED VIA SPACETRACK.ORG API,18 SPCS,48883,SPACEBEE-100,PAYLOAD,U,21059E,2023/1/27 20:10,497632,15.21833096,0.0008411,97.5762,162.4214,40.4349,319.751,0,999,8797,0.0010035,0.00022801,0,3763218,0 SPACEBEE-100,1 48883U 21059E   23027.84037613  .00022801  00000-0  10035-2 0  9998,2 48883  97.5762 162.4214 0008411  40.4349 319.7510 15.21833096 87972,2021-059E,48883,6878.449,94.623,506.099,494.528,0,2023/2/25
GENERATED VIA SPACETRACK.ORG API,18 SPCS,48883,SPACEBEE-100,PAYLOAD,U,21059E,2023/1/28 8:47,988864,15.21856652,0.0008432,97.576,162.9511,39.2299,320.9546,0,999,8805,0.00098251,0.00022337,0,3763848,0 SPACEBEE-100,1 48883U 21059E   23028.36638876  .00022337  00000-0  98251-3 0  9995,2 48883  97.5760 162.9511 0008432  39.2299 320.9546 15.21856652 88054,2021-059E,48883,6878.378,94.621,506.042,494.443,0,2023/2/26
GENERATED VIA SPACETRACK.ORG API,18 SPCS,48883,SPACEBEE-100,PAYLOAD,U,21059E,2023/1/28 8:47,988864,15.21856652,0.0008432,97.576,162.9511,39.2299,320.9546,0,999,8805,0.00098251,0.00022337,0,3763924,0 SPACEBEE-100,1 48883U 21059E   23028.36638876  .00022337  00000-0  98251-3 0  9995,2 48883  97.5760 162.9511 0008432  39.2299 320.9546 15.21856652 88054,2021-059E,48883,6878.378,94.621,506.042,494.443,0,2023/2/27
GENERATED VIA SPACETRACK.ORG API,18 SPCS,48883,SPACEBEE-100,PAYLOAD,U,21059E,2023/1/28 21:25,829504,15.21876209,0.0008378,97.576,163.4807,37.7673,322.4149,0,999,8813,0.00079346,0.00018025,0,3764201,0 SPACEBEE-100,1 48883U 21059E   23028.89239386  .00018025  00000-0  79346-3 0  9999,2 48883  97.5760 163.4807 0008378  37.7673 322.4149 15.21876209 88131,2021-059E,48883,6878.319,94.62,505.946,494.421,0,2023/2/28
GENERATED VIA SPACETRACK.ORG API,18 SPCS,48883,SPACEBEE-100,PAYLOAD,U,21059E,2023/1/29 21:05,6112,15.21912445,0.0008289,97.5758,164.4741,34.2802,325.8968,0,999,8828,0.0007031,0.00015976,0,3765015,0 SPACEBEE-100,1 48883U 21059E   23029.87863433  .00015976  00000-0  70310-3 0  9998,2 48883  97.5758 164.4741 0008289  34.2802 325.8968 15.21912445 88288,2021-059E,48883,6878.209,94.618,505.776,494.373,0,2023/3/1
GENERATED VIA SPACETRACK.ORG API,18 SPCS,48883,SPACEBEE-100,PAYLOAD,U,21059E,2023/1/29 22:39,663552,15.21915172,0.0008288,97.5757,164.5402,33.5875,326.5885,0,999,8829,0.0007276,0.00016538,0,3765280,0 SPACEBEE-100,1 48883U 21059E   23029.94438268  .00016538  00000-0  72760-3 0  9996,2 48883  97.5757 164.5402 0008288  33.5875 326.5885 15.21915172 88290,2021-059E,48883,6878.201,94.618,505.767,494.366,0,2023/3/2
GENERATED VIA SPACETRACK.ORG API,18 SPCS,48883,SPACEBEE-100,PAYLOAD,U,21059E,2023/1/30 8:07,573632,15.21927488,0.0008309,97.5757,164.9375,32.0736,328.1004,0,999,8835,0.00070896,0.00016118,0,3765576,0 SPACEBEE-100,1 48883U 21059E   23030.33887238  .00016118  00000-0  70896-3 0  9998,2 48883  97.5757 164.9375 0008309  32.0736 328.1004 15.21927488 88358,2021-059E,48883,6878.164,94.617,505.744,494.314,0,2023/3/3
GENERATED VIA SPACETRACK.ORG API,18 SPCS,48883,SPACEBEE-100,PAYLOAD,U,21059E,2023/1/30 14:26,5536,15.21935953,0.0008304,97.5757,165.2024,31.035,329.1375,0,999,8839,0.00071473,0.00016254,0,3765849,0 SPACEBEE-100,1 48883U 21059E   23030.60186349  .00016254  00000-0  71473-3 0  9996,2 48883  97.5757 165.2024 0008304  31.0350 329.1375 15.21935953 88391,2021-059E,48883,6878.139,94.616,505.715,494.292,0,2023/3/4
GENERATED VIA SPACETRACK.ORG API,18 SPCS,48883,SPACEBEE-100,PAYLOAD,U,21059E,2023/1/31 3:04,486592,15.21953862,0.0008264,97.5756,165.7321,29.1051,331.0644,0,999,8847,0.00073225,0.00016663,0,3766105,0 SPACEBEE-100,1 48883U 21059E   23031.12784128  .00016663  00000-0  73225-3 0  9994,2 48883  97.5756 165.7321 0008264  29.1051 331.0644 15.21953862 88475,2021-059E,48883,6878.085,94.615,505.634,494.266,0,2023/3/5
GENERATED VIA SPACETRACK.ORG API,18 SPCS,48883,SPACEBEE-100,PAYLOAD,U,21059E,2023/1/31 7:48,9632,15.21962702,0.0008255,97.5756,165.9308,28.4318,331.7366,0,999,8850,0.00079128,0.0001802,0,3766475,0 SPACEBEE-100,1 48883U 21059E   23031.32508113  .00018020  00000-0  79128-3 0  9991,2 48883  97.5756 165.9308 0008255  28.4318 331.7366 15.21962702 88505,2021-059E,48883,6878.058,94.615,505.601,494.245,0,2023/3/6
GENERATED VIA SPACETRACK.ORG API,18 SPCS,48883,SPACEBEE-100,PAYLOAD,U,21059E,2023/2/1 7:28,298592,15.22002998,0.000825,97.576,166.9245,25.5389,334.6253,0,999,8865,0.00086526,0.0001974,0,3767438,0 SPACEBEE-100,1 48883U 21059E   23032.31126503  .00019740  00000-0  86526-3 0  9990,2 48883  97.5760 166.9245 0008250  25.5389 334.6253 15.22002998 88658,2021-059E,48883,6877.937,94.612,505.476,494.127,0,2023/3/7
GENERATED VIA SPACETRACK.ORG API,18 SPCS,48883,SPACEBEE-100,PAYLOAD,U,21059E,2023/2/1 7:28,298592,15.22002998,0.000825,97.576,166.9245,25.5389,334.6253,0,999,8865,0.00086526,0.0001974,0,3767525,0 SPACEBEE-100,1 48883U 21059E   23032.31126503  .00019740  00000-0  86526-3 0  9990,2 48883  97.5760 166.9245 0008250  25.5389 334.6253 15.22002998 88658,2021-059E,48883,6877.937,94.612,505.476,494.127,0,2023/3/8
GENERATED VIA SPACETRACK.ORG API,18 SPCS,48883,SPACEBEE-100,PAYLOAD,U,21059E,2023/2/2 8:42,468096,15.2204971,0.000821,97.5762,167.9843,22.4701,337.6892,0,999,8881,0.00097512,0.00022293,0,3768366,0 SPACEBEE-100,1 48883U 21059E   23033.36316514  .00022293  00000-0  97512-3 0  9993,2 48883  97.5762 167.9843 0008210  22.4701 337.6892 15.22049710 88818,2021-059E,48883,6877.796,94.609,505.308,494.014,0,2023/3/9
GENERATED VIA SPACETRACK.ORG API,18 SPCS,48883,SPACEBEE-100,PAYLOAD,U,21059E,2023/2/2 8:42,468096,15.2204971,0.000821,97.5762,167.9843,22.4701,337.6892,0,999,8881,0.00097512,0.00022293,0,3768954,0 SPACEBEE-100,1 48883U 21059E   23033.36316514  .00022293  00000-0  97512-3 0  9993,2 48883  97.5762 167.9843 0008210  22.4701 337.6892 15.22049710 88818,2021-059E,48883,6877.796,94.609,505.308,494.014,0,2023/3/10
